METHANESAT              
1 59101U 24043D   25179.89308928  .00002107  00000+0  19571-3 0  9995
2 59101  97.8020 305.9033 0012387 108.6250 251.6317 14.95411631 71806
